{
  "type": "FeatureCollection",
  "features": [
    {
      "type": "Feature",
      "properties": {
        "norad_id": 44793,
        "name": "BEIDOU-3 M22 (C44)",
        "group": "gnss",
        "lat": -45.12039107033687,
        "lon": -100.75179524144285,
        "alt_km": 21531.50383127056,
        "timestamp": "2025-12-27T03:58:44.398951+00:00",
        "meta_object_name": "BEIDOU-3 M22 (C44)",
        "meta_object_id": "2019-078A",
        "meta_epoch": "2025-12-26T04:23:18.195072",
        "meta_mean_motion": 1.86232141,
        "meta_eccentricity": 0.0006121,
        "meta_inclination": 54.096,
        "meta_ra_of_asc_node": 305.9151,
        "meta_arg_of_pericenter": 23.7349,
        "meta_mean_anomaly": 336.3032,
        "meta_ephemeris_type": 0,
        "meta_classification_type": "U",
        "meta_norad_cat_id": 44793,
        "meta_element_set_no": 999,
        "meta_rev_at_epoch": 4142,
        "meta_bstar": 0,
        "meta_mean_motion_dot": -5.6e-07,
        "meta_mean_motion_ddot": 0,
        "tle_line1": "1 44793U 19078A   25360.18284948 -.00000056  00000+0  00000+0 0  9992",
        "tle_line2": "2 44793  54.0960 305.9151 0006121  23.7349 336.3032  1.86232141 41424"
      },
      "geometry": {
        "type": "Point",
        "coordinates": [
          -100.75179524144285,
          -45.12039107033687
        ]
      }
    },
    {
      "type": "Feature",
      "properties": {
        "norad_id": 44794,
        "name": "BEIDOU-3 M21 (C43)",
        "group": "gnss",
        "lat": -21.21693098373032,
        "lon": 142.1635710180042,
        "alt_km": 21542.874122124067,
        "timestamp": "2025-12-27T03:58:44.398961+00:00",
        "meta_object_name": "BEIDOU-3 M21 (C43)",
        "meta_object_id": "2019-078B",
        "meta_epoch": "2025-12-25T05:55:32.884896",
        "meta_mean_motion": 1.86227898,
        "meta_eccentricity": 0.0004304,
        "meta_inclination": 54.0703,
        "meta_ra_of_asc_node": 305.9129,
        "meta_arg_of_pericenter": 12.6939,
        "meta_mean_anomaly": 347.3266,
        "meta_ephemeris_type": 0,
        "meta_classification_type": "U",
        "meta_norad_cat_id": 44794,
        "meta_element_set_no": 999,
        "meta_rev_at_epoch": 4141,
        "meta_bstar": 0,
        "meta_mean_motion_dot": -5.3e-07,
        "meta_mean_motion_ddot": 0,
        "tle_line1": "1 44794U 19078B   25359.24690839 -.00000053  00000+0  00000+0 0  9995",
        "tle_line2": "2 44794  54.0703 305.9129 0004304  12.6939 347.3266  1.86227898 41411"
      },
      "geometry": {
        "type": "Point",
        "coordinates": [
          142.1635710180042,
          -21.21693098373032
        ]
      }
    },
    {
      "type": "Feature",
      "properties": {
        "norad_id": 44850,
        "name": "COSMOS 2544 (759)",
        "group": "gnss",
        "lat": -65.35623904716053,
        "lon": -4.296000508138556,
        "alt_km": 19102.379845913565,
        "timestamp": "2025-12-27T03:58:44.398971+00:00",
        "meta_object_name": "COSMOS 2544 (759)",
        "meta_object_id": "2019-088A",
        "meta_epoch": "2025-12-25T20:55:29.447904",
        "meta_mean_motion": 2.13102067,
        "meta_eccentricity": 0.00144287,
        "meta_inclination": 65.4663,
        "meta_ra_of_asc_node": 79.5196,
        "meta_arg_of_pericenter": 250.7311,
        "meta_mean_anomaly": 109.1604,
        "meta_ephemeris_type": 0,
        "meta_classification_type": "U",
        "meta_norad_cat_id": 44850,
        "meta_element_set_no": 999,
        "meta_rev_at_epoch": 4702,
        "meta_bstar": 0,
        "meta_mean_motion_dot": -3e-08,
        "meta_mean_motion_ddot": 0,
        "tle_line1": "1 44850U 19088A   25359.87186861 -.00000003  00000+0  00000+0 0  9998",
        "tle_line2": "2 44850  65.4663  79.5196 0014428 250.7311 109.1604  2.13102067 47024"
      },
      "geometry": {
        "type": "Point",
        "coordinates": [
          -4.296000508138556,
          -65.35623904716053
        ]
      }
    },
    {
      "type": "Feature",
      "properties": {
        "norad_id": 44864,
        "name": "BEIDOU-3 M19 (C41)",
        "group": "gnss",
        "lat": 34.28747854804423,
        "lon": 95.41472400917156,
        "alt_km": 21547.414403415532,
        "timestamp": "2025-12-27T03:58:44.398981+00:00",
        "meta_object_name": "BEIDOU-3 M19 (C41)",
        "meta_object_id": "2019-090A",
        "meta_epoch": "2025-12-26T13:40:26.964192",
        "meta_mean_motion": 1.86231444,
        "meta_eccentricity": 0.001848,
        "meta_inclination": 56.4042,
        "meta_ra_of_asc_node": 68.5033,
        "meta_arg_of_pericenter": 285.3121,
        "meta_mean_anomaly": 77.4787,
        "meta_ephemeris_type": 0,
        "meta_classification_type": "U",
        "meta_norad_cat_id": 44864,
        "meta_element_set_no": 999,
        "meta_rev_at_epoch": 4102,
        "meta_bstar": 0,
        "meta_mean_motion_dot": -3.2e-07,
        "meta_mean_motion_ddot": 0,
        "tle_line1": "1 44864U 19090A   25360.56975653 -.00000032  00000+0  00000+0 0  9991",
        "tle_line2": "2 44864  56.4042  68.5033 0018480 285.3121  77.4787  1.86231444 41027"
      },
      "geometry": {
        "type": "Point",
        "coordinates": [
          95.41472400917156,
          34.28747854804423
        ]
      }
    },
    {
      "type": "Feature",
      "properties": {
        "norad_id": 44865,
        "name": "BEIDOU-3 M20 (C42)",
        "group": "gnss",
        "lat": 38.278193379250816,
        "lon": -143.0604853031589,
        "alt_km": 21565.495479299396,
        "timestamp": "2025-12-27T03:58:44.398991+00:00",
        "meta_object_name": "BEIDOU-3 M20 (C42)",
        "meta_object_id": "2019-090B",
        "meta_epoch": "2025-12-26T13:03:31.682016",
        "meta_mean_motion": 1.86231463,
        "meta_eccentricity": 0.0015612,
        "meta_inclination": 56.4057,
        "meta_ra_of_asc_node": 68.5385,
        "meta_arg_of_pericenter": 297.4355,
        "meta_mean_anomaly": 137.7791,
        "meta_ephemeris_type": 0,
        "meta_classification_type": "U",
        "meta_norad_cat_id": 44865,
        "meta_element_set_no": 999,
        "meta_rev_at_epoch": 4100,
        "meta_bstar": 0,
        "meta_mean_motion_dot": -3.2e-07,
        "meta_mean_motion_ddot": 0,
        "tle_line1": "1 44865U 19090B   25360.54411669 -.00000032  00000+0  00000+0 0  9992",
        "tle_line2": "2 44865  56.4057  68.5385 0015612 297.4355 137.7791  1.86231463 41005"
      },
      "geometry": {
        "type": "Point",
        "coordinates": [
          -143.0604853031589,
          38.278193379250816
        ]
      }
    },
    {
      "type": "Feature",
      "properties": {
        "norad_id": 45344,
        "name": "BEIDOU-3 G2 (C60)",
        "group": "gnss",
        "lat": -0.5127683968985006,
        "lon": -124.40305859074297,
        "alt_km": 35779.751416188075,
        "timestamp": "2025-12-27T03:58:44.399001+00:00",
        "meta_object_name": "BEIDOU-3 G2 (C60)",
        "meta_object_id": "2020-017A",
        "meta_epoch": "2025-12-26T19:54:42.183360",
        "meta_mean_motion": 1.00271873,
        "meta_eccentricity": 0.0002168,
        "meta_inclination": 2.5215,
        "meta_ra_of_asc_node": 44.1514,
        "meta_arg_of_pericenter": 237.4048,
        "meta_mean_anomaly": 192.7346,
        "meta_ephemeris_type": 0,
        "meta_classification_type": "U",
        "meta_norad_cat_id": 45344,
        "meta_element_set_no": 999,
        "meta_rev_at_epoch": 2153,
        "meta_bstar": 0,
        "meta_mean_motion_dot": -1.19e-06,
        "meta_mean_motion_ddot": 0,
        "tle_line1": "1 45344U 20017A   25360.82965490 -.00000119  00000+0  00000+0 0  9999",
        "tle_line2": "2 45344   2.5215  44.1514 0002168 237.4048 192.7346  1.00271873 21533"
      },
      "geometry": {
        "type": "Point",
        "coordinates": [
          -124.40305859074297,
          -0.5127683968985006
        ]
      }
    },
    {
      "type": "Feature",
      "properties": {
        "norad_id": 45358,
        "name": "COSMOS 2545 (760)",
        "group": "gnss",
        "lat": 49.67184162756806,
        "lon": 104.20051583035246,
        "alt_km": 19142.060105827364,
        "timestamp": "2025-12-27T03:58:44.399012+00:00",
        "meta_object_name": "COSMOS 2545 (760)",
        "meta_object_id": "2020-018A",
        "meta_epoch": "2025-12-26T01:37:18.289920",
        "meta_mean_motion": 2.13102654,
        "meta_eccentricity": 0.0011278,
        "meta_inclination": 64.4616,
        "meta_ra_of_asc_node": 318.5028,
        "meta_arg_of_pericenter": 250.7597,
        "meta_mean_anomaly": 109.1229,
        "meta_ephemeris_type": 0,
        "meta_classification_type": "U",
        "meta_norad_cat_id": 45358,
        "meta_element_set_no": 999,
        "meta_rev_at_epoch": 4497,
        "meta_bstar": 0,
        "meta_mean_motion_dot": -3.5e-07,
        "meta_mean_motion_ddot": 0,
        "tle_line1": "1 45358U 20018A   25360.06757280 -.00000035  00000+0  00000+0 0  9994",
        "tle_line2": "2 45358  64.4616 318.5028 0011278 250.7597 109.1229  2.13102654 44977"
      },
      "geometry": {
        "type": "Point",
        "coordinates": [
          104.20051583035246,
          49.67184162756806
        ]
      }
    }
  ]
}